IRIDIUM 26              
1 24903U 97043A   25094.58916743  .00000463  00000+0  14943-3 0  9990
2 24903  86.3967 141.5422 0002200  89.0694 271.0755 14.37064126446171
IRIDIUM 22              
1 24907U 97043E   25094.52812026  .00000609  00000+0  20358-3 0  9996
2 24907  86.3979 145.0405 0002240  94.0351 266.1101 14.35889639446204
DUMMY MASS 1            
1 24925U 97048A   25094.59331005  .00000854  00000+0  92413-4 0  9995
2 24925  86.3404 169.3411 0008560  58.8953 301.3111 14.86907109494193
DUMMY MASS 2            
1 24926U 97048B   25094.47591195  .00000931  00000+0  10169-3 0  9994
2 24926  86.3406 170.9869 0009583  67.2138 293.0098 14.86660284493950
IRIDIUM 29              
1 24944U 97051A   25094.50725240  .00000807  00000+0  26918-3 0  9993
2 24944  86.4026 174.7798 0002319  99.9039 260.2420 14.36387220442695
IRIDIUM 33              
1 24946U 97051C   25094.47849608  .00000590  00000+0  20111-3 0  9994
2 24946  86.3941 174.0466 0006442 333.0566  27.0295 14.34838320442177
IRIDIUM 28              
1 24948U 97051E   25094.45872194  .00000813  00000+0  26614-3 0  9992
2 24948  86.4029 172.3610 0001966  84.5336 275.6086 14.37316781443252
IRIDIUM 36              
1 24967U 97056C   25094.36369533  .00001081  00000+0  35446-3 0  9997
2 24967  86.4029 203.9714 0001856  97.0741 263.0667 14.37527387441616
