<?xml version="1.0" encoding="UTF-8"?>
<ndm xmlns:xsi="http://www.w3.org/2001/XMLSchema-instance" xsi:noNamespaceSchemaLocation="https://sanaregistry.org/r/ndmxml_unqualified/ndmxml-2.0.0-master-2.0.xsd">
<omm id="CCSDS_OMM_VERS" version="2.0">
<header><CREATION_DATE/><ORIGINATOR/></header><body><segment><metadata><OBJECT_NAME>IRIDIUM 26</OBJECT_NAME><OBJECT_ID>1997-043A</OBJECT_ID><CENTER_NAME>EARTH</CENTER_NAME><REF_FRAME>TEME</REF_FRAME><TIME_SYSTEM>UTC</TIME_SYSTEM><MEAN_ELEMENT_THEORY>SGP4</MEAN_ELEMENT_THEORY></metadata><data><meanElements><EPOCH>2025-04-04T14:08:24.065952</EPOCH><MEAN_MOTION>14.37064126</MEAN_MOTION><ECCENTRICITY>.00022</ECCENTRICITY><INCLINATION>86.3967</INCLINATION><RA_OF_ASC_NODE>141.5422</RA_OF_ASC_NODE><ARG_OF_PERICENTER>89.0694</ARG_OF_PERICENTER><MEAN_ANOMALY>271.0755</MEAN_ANOMALY></meanElements><tleParameters><EPHEMERIS_TYPE>0</EPHEMERIS_TYPE><CLASSIFICATION_TYPE>U</CLASSIFICATION_TYPE><NORAD_CAT_ID>24903</NORAD_CAT_ID><ELEMENT_SET_NO>999</ELEMENT_SET_NO><REV_AT_EPOCH>44617</REV_AT_EPOCH><BSTAR>.14943E-3</BSTAR><MEAN_MOTION_DOT>.463E-5</MEAN_MOTION_DOT><MEAN_MOTION_DDOT>0</MEAN_MOTION_DDOT></tleParameters></data></segment></body></omm>
<omm id="CCSDS_OMM_VERS" version="2.0">
<header><CREATION_DATE/><ORIGINATOR/></header><body><segment><metadata><OBJECT_NAME>IRIDIUM 22</OBJECT_NAME><OBJECT_ID>1997-043E</OBJECT_ID><CENTER_NAME>EARTH</CENTER_NAME><REF_FRAME>TEME</REF_FRAME><TIME_SYSTEM>UTC</TIME_SYSTEM><MEAN_ELEMENT_THEORY>SGP4</MEAN_ELEMENT_THEORY></metadata><data><meanElements><EPOCH>2025-04-04T12:40:29.590464</EPOCH><MEAN_MOTION>14.35889639</MEAN_MOTION><ECCENTRICITY>.000224</ECCENTRICITY><INCLINATION>86.3979</INCLINATION><RA_OF_ASC_NODE>145.0405</RA_OF_ASC_NODE><ARG_OF_PERICENTER>94.0351</ARG_OF_PERICENTER><MEAN_ANOMALY>266.1101</MEAN_ANOMALY></meanElements><tleParameters><EPHEMERIS_TYPE>0</EPHEMERIS_TYPE><CLASSIFICATION_TYPE>U</CLASSIFICATION_TYPE><NORAD_CAT_ID>24907</NORAD_CAT_ID><ELEMENT_SET_NO>999</ELEMENT_SET_NO><REV_AT_EPOCH>44620</REV_AT_EPOCH><BSTAR>.20358E-3</BSTAR><MEAN_MOTION_DOT>.609E-5</MEAN_MOTION_DOT><MEAN_MOTION_DDOT>0</MEAN_MOTION_DDOT></tleParameters></data></segment></body></omm>
<omm id="CCSDS_OMM_VERS" version="2.0">
<header><CREATION_DATE/><ORIGINATOR/></header><body><segment><metadata><OBJECT_NAME>DUMMY MASS 1</OBJECT_NAME><OBJECT_ID>1997-048A</OBJECT_ID><CENTER_NAME>EARTH</CENTER_NAME><REF_FRAME>TEME</REF_FRAME><TIME_SYSTEM>UTC</TIME_SYSTEM><MEAN_ELEMENT_THEORY>SGP4</MEAN_ELEMENT_THEORY></metadata><data><meanElements><EPOCH>2025-04-04T14:14:21.988320</EPOCH><MEAN_MOTION>14.86907109</MEAN_MOTION><ECCENTRICITY>.000856</ECCENTRICITY><INCLINATION>86.3404</INCLINATION><RA_OF_ASC_NODE>169.3411</RA_OF_ASC_NODE><ARG_OF_PERICENTER>58.8953</ARG_OF_PERICENTER><MEAN_ANOMALY>301.3111</MEAN_ANOMALY></meanElements><tleParameters><EPHEMERIS_TYPE>0</EPHEMERIS_TYPE><CLASSIFICATION_TYPE>U</CLASSIFICATION_TYPE><NORAD_CAT_ID>24925</NORAD_CAT_ID><ELEMENT_SET_NO>999</ELEMENT_SET_NO><REV_AT_EPOCH>49419</REV_AT_EPOCH><BSTAR>.92413E-4</BSTAR><MEAN_MOTION_DOT>.854E-5</MEAN_MOTION_DOT><MEAN_MOTION_DDOT>0</MEAN_MOTION_DDOT></tleParameters></data></segment></body></omm>
<omm id="CCSDS_OMM_VERS" version="2.0">
<header><CREATION_DATE/><ORIGINATOR/></header><body><segment><metadata><OBJECT_NAME>DUMMY MASS 2</OBJECT_NAME><OBJECT_ID>1997-048B</OBJECT_ID><CENTER_NAME>EARTH</CENTER_NAME><REF_FRAME>TEME</REF_FRAME><TIME_SYSTEM>UTC</TIME_SYSTEM><MEAN_ELEMENT_THEORY>SGP4</MEAN_ELEMENT_THEORY></metadata><data><meanElements><EPOCH>2025-04-04T11:25:18.792480</EPOCH><MEAN_MOTION>14.86660284</MEAN_MOTION><ECCENTRICITY>.0009583</ECCENTRICITY><INCLINATION>86.3406</INCLINATION><RA_OF_ASC_NODE>170.9869</RA_OF_ASC_NODE><ARG_OF_PERICENTER>67.2138</ARG_OF_PERICENTER><MEAN_ANOMALY>293.0098</MEAN_ANOMALY></meanElements><tleParameters><EPHEMERIS_TYPE>0</EPHEMERIS_TYPE><CLASSIFICATION_TYPE>U</CLASSIFICATION_TYPE><NORAD_CAT_ID>24926</NORAD_CAT_ID><ELEMENT_SET_NO>999</ELEMENT_SET_NO><REV_AT_EPOCH>49395</REV_AT_EPOCH><BSTAR>.10169E-3</BSTAR><MEAN_MOTION_DOT>.931E-5</MEAN_MOTION_DOT><MEAN_MOTION_DDOT>0</MEAN_MOTION_DDOT></tleParameters></data></segment></body></omm>
<omm id="CCSDS_OMM_VERS" version="2.0">
<header><CREATION_DATE/><ORIGINATOR/></header><body><segment><metadata><OBJECT_NAME>IRIDIUM 29</OBJECT_NAME><OBJECT_ID>1997-051A</OBJECT_ID><CENTER_NAME>EARTH</CENTER_NAME><REF_FRAME>TEME</REF_FRAME><TIME_SYSTEM>UTC</TIME_SYSTEM><MEAN_ELEMENT_THEORY>SGP4</MEAN_ELEMENT_THEORY></metadata><data><meanElements><EPOCH>2025-04-04T12:10:26.607360</EPOCH><MEAN_MOTION>14.36387220</MEAN_MOTION><ECCENTRICITY>.0002319</ECCENTRICITY><INCLINATION>86.4026</INCLINATION><RA_OF_ASC_NODE>174.7798</RA_OF_ASC_NODE><ARG_OF_PERICENTER>99.9039</ARG_OF_PERICENTER><MEAN_ANOMALY>260.2420</MEAN_ANOMALY></meanElements><tleParameters><EPHEMERIS_TYPE>0</EPHEMERIS_TYPE><CLASSIFICATION_TYPE>U</CLASSIFICATION_TYPE><NORAD_CAT_ID>24944</NORAD_CAT_ID><ELEMENT_SET_NO>999</ELEMENT_SET_NO><REV_AT_EPOCH>44269</REV_AT_EPOCH><BSTAR>.26918E-3</BSTAR><MEAN_MOTION_DOT>.807E-5</MEAN_MOTION_DOT><MEAN_MOTION_DDOT>0</MEAN_MOTION_DDOT></tleParameters></data></segment></body></omm>
<omm id="CCSDS_OMM_VERS" version="2.0">
<header><CREATION_DATE/><ORIGINATOR/></header><body><segment><metadata><OBJECT_NAME>IRIDIUM 33</OBJECT_NAME><OBJECT_ID>1997-051C</OBJECT_ID><CENTER_NAME>EARTH</CENTER_NAME><REF_FRAME>TEME</REF_FRAME><TIME_SYSTEM>UTC</TIME_SYSTEM><MEAN_ELEMENT_THEORY>SGP4</MEAN_ELEMENT_THEORY></metadata><data><meanElements><EPOCH>2025-04-04T11:29:02.061312</EPOCH><MEAN_MOTION>14.34838320</MEAN_MOTION><ECCENTRICITY>.0006442</ECCENTRICITY><INCLINATION>86.3941</INCLINATION><RA_OF_ASC_NODE>174.0466</RA_OF_ASC_NODE><ARG_OF_PERICENTER>333.0566</ARG_OF_PERICENTER><MEAN_ANOMALY>27.0295</MEAN_ANOMALY></meanElements><tleParameters><EPHEMERIS_TYPE>0</EPHEMERIS_TYPE><CLASSIFICATION_TYPE>U</CLASSIFICATION_TYPE><NORAD_CAT_ID>24946</NORAD_CAT_ID><ELEMENT_SET_NO>999</ELEMENT_SET_NO><REV_AT_EPOCH>44217</REV_AT_EPOCH><BSTAR>.20111E-3</BSTAR><MEAN_MOTION_DOT>.59E-5</MEAN_MOTION_DOT><MEAN_MOTION_DDOT>0</MEAN_MOTION_DDOT></tleParameters></data></segment></body></omm>
<omm id="CCSDS_OMM_VERS" version="2.0">
<header><CREATION_DATE/><ORIGINATOR/></header><body><segment><metadata><OBJECT_NAME>IRIDIUM 28</OBJECT_NAME><OBJECT_ID>1997-051E</OBJECT_ID><CENTER_NAME>EARTH</CENTER_NAME><REF_FRAME>TEME</REF_FRAME><TIME_SYSTEM>UTC</TIME_SYSTEM><MEAN_ELEMENT_THEORY>SGP4</MEAN_ELEMENT_THEORY></metadata><data><meanElements><EPOCH>2025-04-04T11:00:33.575616</EPOCH><MEAN_MOTION>14.37316781</MEAN_MOTION><ECCENTRICITY>.0001966</ECCENTRICITY><INCLINATION>86.4029</INCLINATION><RA_OF_ASC_NODE>172.3610</RA_OF_ASC_NODE><ARG_OF_PERICENTER>84.5336</ARG_OF_PERICENTER><MEAN_ANOMALY>275.6086</MEAN_ANOMALY></meanElements><tleParameters><EPHEMERIS_TYPE>0</EPHEMERIS_TYPE><CLASSIFICATION_TYPE>U</CLASSIFICATION_TYPE><NORAD_CAT_ID>24948</NORAD_CAT_ID><ELEMENT_SET_NO>999</ELEMENT_SET_NO><REV_AT_EPOCH>44325</REV_AT_EPOCH><BSTAR>.26614E-3</BSTAR><MEAN_MOTION_DOT>.813E-5</MEAN_MOTION_DOT><MEAN_MOTION_DDOT>0</MEAN_MOTION_DDOT></tleParameters></data></segment></body></omm>
<omm id="CCSDS_OMM_VERS" version="2.0">
<header><CREATION_DATE/><ORIGINATOR/></header><body><segment><metadata><OBJECT_NAME>IRIDIUM 36</OBJECT_NAME><OBJECT_ID>1997-056C</OBJECT_ID><CENTER_NAME>EARTH</CENTER_NAME><REF_FRAME>TEME</REF_FRAME><TIME_SYSTEM>UTC</TIME_SYSTEM><MEAN_ELEMENT_THEORY>SGP4</MEAN_ELEMENT_THEORY></metadata><data><meanElements><EPOCH>2025-04-04T08:43:43.276512</EPOCH><MEAN_MOTION>14.37527387</MEAN_MOTION><ECCENTRICITY>.0001856</ECCENTRICITY><INCLINATION>86.4029</INCLINATION><RA_OF_ASC_NODE>203.9714</RA_OF_ASC_NODE><ARG_OF_PERICENTER>97.0741</ARG_OF_PERICENTER><MEAN_ANOMALY>263.0667</MEAN_ANOMALY></meanElements><tleParameters><EPHEMERIS_TYPE>0</EPHEMERIS_TYPE><CLASSIFICATION_TYPE>U</CLASSIFICATION_TYPE><NORAD_CAT_ID>24967</NORAD_CAT_ID><ELEMENT_SET_NO>999</ELEMENT_SET_NO><REV_AT_EPOCH>44161</REV_AT_EPOCH><BSTAR>.35446E-3</BSTAR><MEAN_MOTION_DOT>.1081E-4</MEAN_MOTION_DOT><MEAN_MOTION_DDOT>0</MEAN_MOTION_DDOT></tleParameters></data></segment></body></omm>

</ndm>
